NORAD_CAT_ID,OBJECT_NAME,OBJECT_TYPE,EPOCH,MEAN_MOTION,ECCENTRICITY,INCLINATION,RA_OF_ASC_NODE,ARG_OF_PERICENTER,MEAN_ANOMALY,BSTAR,MEAN_MOTION_DOT,MEAN_MOTION_DDOT,TLE_LINE0,TLE_LINE1,TLE_LINE2,SEMIMAJOR_AXIS,PERIOD,APOGEE,PERIGEE,DECAYED
52100.0,STARLINK-3702,PAYLOAD,2022-05-28 14:00:01,15.08836681,0.0001469,53.2157,169.1338,60.5163,84.116,0.0010633,0.00016673,0.0,0 STARLINK-3702,1 52100U 22029N   22148.58334491  .00016673  00000-0  10633-2 0  9995,2 52100  53.2157 169.1338 0001469  60.5163  84.1160 15.08836681  1305,6917.891,95.438,540.7719999999998,538.739,0.0
52100.0,STARLINK-3702,PAYLOAD,2022-05-28 22:00:00,15.08828432,0.0001330999999999,53.2155,167.6357,70.796,85.4499,0.0026808,0.00042622,0.0,0 STARLINK-3702,1 52100U 22029N   22148.91667824  .00042622  00000-0  26808-2 0  9995,2 52100  53.2155 167.6357 0001331  70.7960  85.4499 15.08828432 12208,6917.916,95.438,540.702,538.86,0.0
52100.0,STARLINK-3702,PAYLOAD,2022-05-29 14:00:01,15.08850802,0.0001539,53.2149,164.6445,63.2984,116.146,-0.0025493,-0.00040644,0.0,0 STARLINK-3702,1 52100U 22029N   22149.58334491 -.00040644  00000-0 -25493-2 0  9993,2 52100  53.2149 164.6445 0001539  63.2984 116.1460 15.08850802 12306,6917.847,95.437,540.7769999999998,538.648,0.0
52100.0,STARLINK-3702,PAYLOAD,2022-05-29 22:00:00,15.08802568,0.0001486999999999,53.2149,163.1464,73.05,117.994,0.0023977,0.00038039,0.0,0 STARLINK-3702,1 52100U 22029N   22149.91667824  .00038039  00000-0  23977-2 0  9997,2 52100  53.2149 163.1464 0001487  73.0500 117.9940 15.08802568  1302,6917.995,95.44,540.889,538.831,0.0
52100.0,STARLINK-3702,PAYLOAD,2022-05-30 06:00:00,15.08835274,0.0001588,53.215,161.6515,68.83800000000001,133.775,-0.0014156,-0.00022744,0.0,0 STARLINK-3702,1 52100U 22029N   22150.25001157 -.00022744  00000-0 -14156-2 0  9994,2 52100  53.2150 161.6515 0001588  68.8380 133.7750 15.08835274 12402,6917.895,95.438,540.8580000000002,538.661,0.0
52100.0,STARLINK-3702,PAYLOAD,2022-05-30 08:17:06,15.08861051,0.0001468,53.2173,161.2228,96.6297,263.4863,0.00020461,2.972e-05,0.0,0 STARLINK-3702,1 52100U 22029N   22150.34521191  .00002972  00000-0  20461-3 0  9995,2 52100  53.2173 161.2228 0001468  96.6297 263.4863 15.08861051 12427,6917.816,95.436,540.697,538.6659999999998,0.0
52100.0,STARLINK-3702,PAYLOAD,2022-05-30 22:00:00,15.08815186,0.0001543,53.2146,158.6569,75.104,150.8092,0.0023347,0.00037039,0.0,0 STARLINK-3702,1 52100U 22029N   22150.91667824  .00037039  00000-0  23347-2 0  9999,2 52100  53.2146 158.6569 0001543  75.1040 150.8092 15.08815186 12507,6917.956,95.439,540.889,538.754,0.0
52100.0,STARLINK-3702,PAYLOAD,2022-05-31 06:00:02,15.08844597,0.0001656,53.2148,157.162,70.1264,167.4345,-0.0012697,-0.00020441,0.0,0 STARLINK-3702,1 52100U 22029N   22151.25002315 -.00020441  00000-0 -12697-2 0  9992,2 52100  53.2148 157.1620 0001656  70.1264 167.4345 15.08844597  1308,6917.866,95.437,540.877,538.586,0.0
52100.0,STARLINK-3702,PAYLOAD,2022-05-31 14:00:01,15.08848614,0.0001644,53.2147,155.6656,66.5174,182.5682,-0.0010004,-0.00016178,0.0,0 STARLINK-3702,1 52100U 22029N   22151.58334491 -.00016178  00000-0 -10004-2 0  9993,2 52100  53.2147 155.6656 0001644  66.5174 182.5682 15.08848614 12606,6917.854,95.437,540.856,538.582,0.0
52100.0,STARLINK-3702,PAYLOAD,2022-05-31 22:00:00,15.08829595,0.0001579,53.2149,154.1675,74.0337,186.6555,0.0011078,0.00017382,0.0,0 STARLINK-3702,1 52100U 22029N   22151.91667824  .00017382  00000-0  11078-2 0  9997,2 52100  53.2149 154.1675 0001579  74.0337 186.6555 15.08829595  1301,6917.9119999999975,95.438,540.87,538.685,0.0
52100.0,STARLINK-3702,PAYLOAD,2022-06-01 20:00:01,15.08800858,0.0001533,53.2156,150.0526,70.2222,132.3204,0.0022673,0.00035942,0.0,0 STARLINK-3702,1 52100U 22029N   22152.83334491  .00035942  00000-0  22673-2 0  9995,2 52100  53.2156 150.0526 0001533  70.2222 132.3204 15.08800858 12795,6918.0,95.44,540.9259999999998,538.805,0.0
52100.0,STARLINK-3702,PAYLOAD,2022-06-03 02:54:06,15.08829791,0.0001488,53.2164,144.2738,64.6642,295.4504,-4.6926e-05,-1.034e-05,0.0,0 STARLINK-3702,1 52100U 22029N   22154.12090957 -.00001034  00000-0 -46926-4 0  9991,2 52100  53.2164 144.2738 0001488  64.6642 295.4504 15.08829791 12999,6917.9119999999975,95.438,540.806,538.747,0.0
52100.0,STARLINK-3702,PAYLOAD,2022-06-03 09:15:39,15.08825935,0.0001606,53.2172,143.0841,69.5009,290.6155,3.5099000000000004e-05,2.7000000000000004e-06,0.0,0 STARLINK-3702,1 52100U 22029N   22154.38587061  .00000270  00000-0  35099-4 0  9994,2 52100  53.2172 143.0841 0001606  69.5009 290.6155 15.08825935 13034,6917.9230000000025,95.438,540.899,538.677,0.0
52100.0,STARLINK-3702,PAYLOAD,2022-06-04 04:20:17,15.088289800000002,0.0001608,53.2174,139.5157,69.4157,290.7008,6.0461e-05,6.74e-06,0.0,0 STARLINK-3702,1 52100U 22029N   22155.18075385  .00000674  00000-0  60461-4 0  9993,2 52100  53.2174 139.5157 0001608  69.4157 290.7008 15.08828980 13155,6917.9140000000025,95.438,540.891,538.6669999999998,0.0
52100.0,STARLINK-3702,PAYLOAD,2022-06-04 05:55:40,15.08830136,0.00016,53.2174,139.2183,68.7369,291.3794,5.8778e-05,6.47e-06,0.0,0 STARLINK-3702,1 52100U 22029N   22155.24699364  .00000647  00000-0  58778-4 0  9997,2 52100  53.2174 139.2183 0001600  68.7369 291.3794 15.08830136 13166,6917.911,95.438,540.882,538.669,0.0
52100.0,STARLINK-3702,PAYLOAD,2022-06-05 22:00:00,15.08842836,0.0001702,53.2168,131.72299999999998,76.7632,357.7403,0.0014061,0.00022163,0.0,0 STARLINK-3702,1 52100U 22029N   22156.91667824  .00022163  00000-0  14061-2 0  9990,2 52100  53.2168 131.7230 0001702  76.7632 357.7403 15.08842836 13416,6917.871999999999,95.437,540.914,538.559,0.0
52100.0,STARLINK-3702,PAYLOAD,2022-06-06 14:00:01,15.08866839,0.0001667,53.2162,128.7312,70.6433,27.0754,-0.0043879,-0.000695,0.0,0 STARLINK-3702,1 52100U 22029N   22157.58334491 -.00069500  00000-0 -43879-2 0  9992,2 52100  53.2162 128.7312 0001667  70.6433  27.0754 15.08866839 13515,6917.7980000000025,95.436,540.817,538.51,0.0
52100.0,STARLINK-3702,PAYLOAD,2022-06-06 22:00:00,15.08827363,0.000164,53.2163,127.234,76.85300000000002,32.4628,0.0010082,0.00015788,0.0,0 STARLINK-3702,1 52100U 22029N   22157.91667824  .00015788  00000-0  10082-2 0  9995,2 52100  53.2163 127.2340 0001640  76.8530  32.4628 15.08827363  1301,6917.919,95.438,540.919,538.649,0.0
52100.0,STARLINK-3702,PAYLOAD,2022-06-07 06:00:00,15.08825354,0.000173,53.2162,125.7396,69.0428,51.8623,0.00041928,6.388e-05,0.0,0 STARLINK-3702,1 52100U 22029N   22158.25001157  .00006388  00000-0  41928-3 0  9994,2 52100  53.2162 125.7396 0001730  69.0428  51.8623 15.08825354 13619,6917.925,95.438,540.987,538.5930000000002,0.0
52100.0,STARLINK-3702,PAYLOAD,2022-06-07 14:00:01,15.08850741,0.0001663,53.2159,124.2421,71.0273,61.4587,-0.0017888,-0.00028653,0.0,0 STARLINK-3702,1 52100U 22029N   22158.58334491 -.00028653  00000-0 -17888-2 0  9998,2 52100  53.2159 124.2421 0001663  71.0273  61.4587 15.08850741  1301,6917.848000000001,95.437,540.863,538.562,0.0
52100.0,STARLINK-3702,PAYLOAD,2022-06-07 22:00:00,15.0884467,0.0001704,53.2161,122.7449,76.97800000000002,67.1039,0.00078623,0.00012249,0.0,0 STARLINK-3702,1 52100U 22029N   22158.91667824  .00012249  00000-0  78623-3 0  9991,2 52100  53.2161 122.7449 0001704  76.9780  67.1039 15.08844670  1309,6917.866,95.437,540.91,538.552,0.0
52100.0,STARLINK-3702,PAYLOAD,2022-06-08 06:00:02,15.08839965,0.0001771,53.216,121.2503,68.5439,87.2107,0.00090563,0.00014154,0.0,0 STARLINK-3702,1 52100U 22029N   22159.25002315  .00014154  00000-0  90563-3 0  9991,2 52100  53.2160 121.2503 0001771  68.5439  87.2107 15.08839965 13768,6917.88,95.438,540.971,538.52,0.0
52100.0,STARLINK-3702,PAYLOAD,2022-06-08 14:00:01,15.08862128,0.0001636999999999,53.2159,119.7526,70.5805,96.711,-0.0036572,-0.00058059,0.0,0 STARLINK-3702,1 52100U 22029N   22159.58334491 -.00058059  00000-0 -36572-2 0  9993,2 52100  53.2159 119.7526 0001637  70.5805  96.7110 15.08862128  1307,6917.813,95.436,540.81,538.545,0.0
52100.0,STARLINK-3702,PAYLOAD,2022-06-08 22:00:01,15.08835859,0.0001662,53.2163,118.2556,75.35300000000002,103.5931,0.00042312,6.452e-05,0.0,0 STARLINK-3702,1 52100U 22029N   22159.91668981  .00006452  00000-0  42312-3 0  9992,2 52100  53.2163 118.2556 0001662  75.3530 103.5931 15.08835859 13868,6917.893,95.438,540.908,538.6080000000002,0.0
52100.0,STARLINK-3702,PAYLOAD,2022-06-09 14:00:01,15.08857472,0.0001598,53.2163,115.2632,69.6304,132.4309,-0.0042122,-0.00066737,0.0,0 STARLINK-3702,1 52100U 22029N   22160.58334491 -.00066737  00000-0 -42122-2 0  9995,2 52100  53.2163 115.2632 0001598  69.6304 132.4309 15.08857472  1304,6917.8269999999975,95.436,540.797,538.587,0.0
52100.0,STARLINK-3702,PAYLOAD,2022-06-09 22:00:00,15.08824449,0.00016,53.2167,113.7665,73.9731,139.6698,7.3535e-05,8.82e-06,0.0,0 STARLINK-3702,1 52100U 22029N   22160.91667824  .00000882  00000-0  73535-4 0  9992,2 52100  53.2167 113.7665 0001600  73.9731 139.6698 15.08824449  1301,6917.928000000001,95.439,540.9,538.686,0.0
52100.0,STARLINK-3702,PAYLOAD,2022-06-10 00:00:00,15.08834199,0.000161,53.2166,113.3928,71.4628,235.0716,-0.0013647,-0.00021938,0.0,0 STARLINK-3702,1 52100U 22029N   22161.00001157 -.00021938  00000-0 -13647-2 0  9997,2 52100  53.2166 113.3928 0001610  71.4628 235.0716 15.08834199 14025,6917.898,95.438,540.877,538.649,0.0
52100.0,STARLINK-3702,PAYLOAD,2022-06-10 14:00:01,15.08836655,0.0001591,53.2168,110.7734,69.9292,166.8655,-0.0010451,-0.00016881,0.0,0 STARLINK-3702,1 52100U 22029N   22161.58334491 -.00016881  00000-0 -10451-2 0  9991,2 52100  53.2168 110.7734 0001591  69.9292 166.8655 15.08836655  1309,6917.891,95.438,540.856,538.655,0.0
52100.0,STARLINK-3702,PAYLOAD,2022-06-10 22:00:00,15.08844741,0.0001629999999999,53.2172,109.2769,74.7728,173.6028,-0.00013719,-2.471e-05,0.0,0 STARLINK-3702,1 52100U 22029N   22161.91667824 -.00002471  00000-0 -13719-3 0  9998,2 52100  53.2172 109.2769 0001630  74.7728 173.6028 15.08844741 14160,6917.866,95.437,540.859,538.6030000000002,0.0
